start=new Date('2021-12-14T00:00:00.000Z').valueOf();
sats=[{"TLE_LINE2":"2 45370  53.0546 270.2925 0002100  58.7880 301.3314 15.06394885 96605","OBJECT_TYPE":"PAYLOAD","MEAN_MOTION":"15.06394885","RCS_SIZE":"LARGE","REV_AT_EPOCH":"9660","BSTAR":"0.00001163000000","EPHEMERIS_TYPE":"0","RA_OF_ASC_NODE":"270.2925","ARG_OF_PERICENTER":"58.7880","MEAN_MOTION_DDOT":"0.0000000000000","OBJECT_NAME":"STARLINK-1281","MEAN_ELEMENT_THEORY":"SGP4","MEAN_ANOMALY":"301.3314","DECAY_DATE":null,"CENTER_NAME":"EARTH","NORAD_CAT_ID":"45370","FILE":"3239585","REF_FRAME":"TEME","LAUNCH_DATE":"2020-03-18","SEMIMAJOR_AXIS":"6925.364","SITE":"AFETR","INCLINATION":"53.0546","CLASSIFICATION_TYPE":"U","PERIAPSIS":"545.775","APOAPSIS":"548.684","OBJECT_ID":"2020-019L","GP_ID":"191657021","TIME_SYSTEM":"UTC","COUNTRY_CODE":"US","TLE_LINE1":"1 45370U 20019L   21347.92817073 -.00000109  00000-0  11630-4 0  9991","ELEMENT_SET_NO":"999","ECCENTRICITY":"0.00021000","PERIOD":"95.592","MEAN_MOTION_DOT":"-0.00000109","EPOCH":"2021-12-13T22:16:33.951072"},{"PERIOD":"95.592","ECCENTRICITY":"0.00024440","MEAN_MOTION_DOT":"-0.00000320","EPOCH":"2021-12-13T11:50:15.059904","COUNTRY_CODE":"US","TLE_LINE1":"1 45371U 20019M   21347.49322986 -.00000320  00000-0 -25668-5 0  9991","OBJECT_ID":"2020-019M","GP_ID":"191622156","TIME_SYSTEM":"UTC","ELEMENT_SET_NO":"999","SITE":"AFETR","CLASSIFICATION_TYPE":"U","PERIAPSIS":"545.530","APOAPSIS":"548.915","INCLINATION":"53.0534","FILE":"3238998","SEMIMAJOR_AXIS":"6925.357","REF_FRAME":"TEME","LAUNCH_DATE":"2020-03-18","DECAY_DATE":null,"NORAD_CAT_ID":"45371","CENTER_NAME":"EARTH","EPHEMERIS_TYPE":"0","RA_OF_ASC_NODE":"272.2487","ARG_OF_PERICENTER":"58.3304","MEAN_ANOMALY":"301.7923","MEAN_ELEMENT_THEORY":"SGP4","MEAN_MOTION_DDOT":"0.0000000000000","OBJECT_NAME":"STARLINK-1287","REV_AT_EPOCH":"9653","RCS_SIZE":"LARGE","TLE_LINE2":"2 45371  53.0534 272.2487 0002444  58.3304 301.7923 15.06397176 96534","OBJECT_TYPE":"PAYLOAD","MEAN_MOTION":"15.06397176","BSTAR":"-0.00000256680000"},{"SEMIMAJOR_AXIS":"6925.374","LAUNCH_DATE":"2020-03-18","REF_FRAME":"TEME","FILE":"3239585","NORAD_CAT_ID":"45372","CENTER_NAME":"EARTH","DECAY_DATE":null,"MEAN_ELEMENT_THEORY":"SGP4","MEAN_ANOMALY":"295.9067","MEAN_MOTION_DDOT":"0.0000000000000","OBJECT_NAME":"STARLINK-1288","ARG_OF_PERICENTER":"64.2150","RA_OF_ASC_NODE":"270.4093","EPHEMERIS_TYPE":"0","BSTAR":"-0.00004543600000","REV_AT_EPOCH":"9659","RCS_SIZE":"LARGE","MEAN_MOTION":"15.06391717","TLE_LINE2":"2 45372  53.0550 270.4093 0002212  64.2150 295.9067 15.06391717 96598","OBJECT_TYPE":"PAYLOAD","EPOCH":"2021-12-13T21:44:43.605600","MEAN_MOTION_DOT":"-0.00000958","PERIOD":"95.593","ECCENTRICITY":"0.00022120","ELEMENT_SET_NO":"999","TLE_LINE1":"1 45372U 20019N   21347.90606025 -.00000958  00000-0 -45436-4 0  9998","COUNTRY_CODE":"US","TIME_SYSTEM":"UTC","OBJECT_ID":"2020-019N","GP_ID":"191658522","PERIAPSIS":"545.707","APOAPSIS":"548.771","CLASSIFICATION_TYPE":"U","INCLINATION":"53.0550","SITE":"AFETR"},{"ARG_OF_PERICENTER":"56.9558","RA_OF_ASC_NODE":"272.2734","EPHEMERIS_TYPE":"0","MEAN_ANOMALY":"303.1672","MEAN_ELEMENT_THEORY":"SGP4","OBJECT_NAME":"STARLINK-1295","MEAN_MOTION_DDOT":"0.0000000000000","REV_AT_EPOCH":"9653","RCS_SIZE":"LARGE","MEAN_MOTION":"15.06398148","OBJECT_TYPE":"PAYLOAD","TLE_LINE2":"2 45373  53.0543 272.2734 0002508  56.9558 303.1672 15.06398148 96534","BSTAR":"-0.00001865800000","FILE":"3238998","SEMIMAJOR_AXIS":"6925.354","LAUNCH_DATE":"2020-03-18","REF_FRAME":"TEME","DECAY_DATE":null,"NORAD_CAT_ID":"45373","CENTER_NAME":"EARTH","SITE":"AFETR","PERIAPSIS":"545.482","APOAPSIS":"548.956","CLASSIFICATION_TYPE":"U","INCLINATION":"53.0543","PERIOD":"95.592","ECCENTRICITY":"0.00025080","EPOCH":"2021-12-13T11:44:56.478048","MEAN_MOTION_DOT":"-0.00000560","TLE_LINE1":"1 45373U 20019P   21347.48954257 -.00000560  00000-0 -18658-4 0  9990","COUNTRY_CODE":"US","TIME_SYSTEM":"UTC","OBJECT_ID":"2020-019P","GP_ID":"191623657","ELEMENT_SET_NO":"999"},{"NORAD_CAT_ID":"45374","CENTER_NAME":"EARTH","DECAY_DATE":null,"SEMIMAJOR_AXIS":"6925.333","LAUNCH_DATE":"2020-03-18","REF_FRAME":"TEME","FILE":"3239585","BSTAR":"0.00009406200000","RCS_SIZE":"LARGE","REV_AT_EPOCH":"9660","MEAN_MOTION":"15.06404931","OBJECT_TYPE":"PAYLOAD","TLE_LINE2":"2 45374  53.0544 270.2065 0002588  62.4966 297.6286 15.06404931 96608","MEAN_ANOMALY":"297.6286","MEAN_ELEMENT_THEORY":"SGP4","OBJECT_NAME":"STARLINK-1300","MEAN_MOTION_DDOT":"0.0000000000000","ARG_OF_PERICENTER":"62.4966","RA_OF_ASC_NODE":"270.2065","EPHEMERIS_TYPE":"0","ELEMENT_SET_NO":"999","TLE_LINE1":"1 45374U 20019Q   21347.95028598  .00001120  00000-0  94062-4 0  9997","COUNTRY_CODE":"US","TIME_SYSTEM":"UTC","OBJECT_ID":"2020-019Q","GP_ID":"191657521","EPOCH":"2021-12-13T22:48:24.708672","MEAN_MOTION_DOT":"0.00001120","PERIOD":"95.592","ECCENTRICITY":"0.00025880","PERIAPSIS":"545.406","APOAPSIS":"548.991","CLASSIFICATION_TYPE":"U","INCLINATION":"53.0544","SITE":"AFETR"},{"CENTER_NAME":"EARTH","NORAD_CAT_ID":"45375","DECAY_DATE":null,"LAUNCH_DATE":"2020-03-18","REF_FRAME":"TEME","SEMIMAJOR_AXIS":"6925.365","FILE":"3239585","BSTAR":"0.00009903600000","MEAN_MOTION":"15.06394645","TLE_LINE2":"2 45375  53.0553 270.4434 0002277  62.8662 297.2559 15.06394645 96590","OBJECT_TYPE":"PAYLOAD","REV_AT_EPOCH":"9659","RCS_SIZE":"LARGE","OBJECT_NAME":"STARLINK-1302","MEAN_MOTION_DDOT":"0.0000000000000","MEAN_ELEMENT_THEORY":"SGP4","MEAN_ANOMALY":"297.2559","ARG_OF_PERICENTER":"62.8662","RA_OF_ASC_NODE":"270.4434","EPHEMERIS_TYPE":"0","ELEMENT_SET_NO":"999","TIME_SYSTEM":"UTC","OBJECT_ID":"2020-019R","GP_ID":"191657772","TLE_LINE1":"1 45375U 20019R   21347.89867917  .00001193  00000-0  99036-4 0  9993","COUNTRY_CODE":"US","EPOCH":"2021-12-13T21:34:05.880288","MEAN_MOTION_DOT":"0.00001193","ECCENTRICITY":"0.00022770","PERIOD":"95.592","INCLINATION":"53.0553","APOAPSIS":"548.807","PERIAPSIS":"545.653","CLASSIFICATION_TYPE":"U","SITE":"AFETR"},{"ELEMENT_SET_NO":"999","TLE_LINE1":"1 45376U 20019S   21347.51903419  .00001027  00000-0  87833-4 0  9999","COUNTRY_CODE":"US","TIME_SYSTEM":"UTC","GP_ID":"191622906","OBJECT_ID":"2020-019S","EPOCH":"2021-12-13T12:27:24.554016","MEAN_MOTION_DOT":"0.00001027","PERIOD":"95.593","ECCENTRICITY":"0.00021420","APOAPSIS":"548.717","PERIAPSIS":"545.750","CLASSIFICATION_TYPE":"U","INCLINATION":"53.0551","SITE":"AFETR","NORAD_CAT_ID":"45376","CENTER_NAME":"EARTH","DECAY_DATE":null,"SEMIMAJOR_AXIS":"6925.369","LAUNCH_DATE":"2020-03-18","REF_FRAME":"TEME","FILE":"3238998","BSTAR":"0.00008783300000","RCS_SIZE":"LARGE","REV_AT_EPOCH":"9653","MEAN_MOTION":"15.06393481","OBJECT_TYPE":"PAYLOAD","TLE_LINE2":"2 45376  53.0551 272.1457 0002142  66.3691 293.7523 15.06393481 96538","MEAN_ELEMENT_THEORY":"SGP4","MEAN_ANOMALY":"293.7523","MEAN_MOTION_DDOT":"0.0000000000000","OBJECT_NAME":"STARLINK-1304","RA_OF_ASC_NODE":"272.1457","ARG_OF_PERICENTER":"66.3691","EPHEMERIS_TYPE":"0"},{"FILE":"3239585","SEMIMAJOR_AXIS":"6925.328","LAUNCH_DATE":"2020-03-18","REF_FRAME":"TEME","DECAY_DATE":null,"NORAD_CAT_ID":"45377","CENTER_NAME":"EARTH","RA_OF_ASC_NODE":"270.2365","ARG_OF_PERICENTER":"64.2148","EPHEMERIS_TYPE":"0","MEAN_ANOMALY":"295.9099","MEAN_ELEMENT_THEORY":"SGP4","MEAN_MOTION_DDOT":"0.0000000000000","OBJECT_NAME":"STARLINK-1305","REV_AT_EPOCH":"9660","RCS_SIZE":"LARGE","MEAN_MOTION":"15.06406600","TLE_LINE2":"2 45377  53.0541 270.2365 0002504  64.2148 295.9099 15.06406600 96609","OBJECT_TYPE":"PAYLOAD","BSTAR":"0.00006935700000","PERIOD":"95.592","ECCENTRICITY":"0.00025040","EPOCH":"2021-12-13T22:37:47.394624","MEAN_MOTION_DOT":"0.00000751","TLE_LINE1":"1 45377U 20019T   21347.94290966  .00000751  00000-0  69357-4 0  9997","COUNTRY_CODE":"US","TIME_SYSTEM":"UTC","OBJECT_ID":"2020-019T","GP_ID":"191658775","ELEMENT_SET_NO":"999","SITE":"AFETR","PERIAPSIS":"545.459","APOAPSIS":"548.927","CLASSIFICATION_TYPE":"U","INCLINATION":"53.0541"},{"PERIAPSIS":"545.552","APOAPSIS":"548.845","CLASSIFICATION_TYPE":"U","INCLINATION":"53.0553","SITE":"AFETR","ELEMENT_SET_NO":"999","TLE_LINE1":"1 45378U 20019U   21347.93185523  .00000851  00000-0  76016-4 0  9990","COUNTRY_CODE":"US","TIME_SYSTEM":"UTC","GP_ID":"191657022","OBJECT_ID":"2020-019U","EPOCH":"2021-12-13T22:21:52.291872","MEAN_MOTION_DOT":"0.00000851","PERIOD":"95.592","ECCENTRICITY":"0.00023770","BSTAR":"0.00007601600000","RCS_SIZE":"LARGE","REV_AT_EPOCH":"9660","MEAN_MOTION":"15.06404866","OBJECT_TYPE":"PAYLOAD","TLE_LINE2":"2 45378  53.0553 270.2948 0002377  64.1163 296.0071 15.06404866 96608","MEAN_ELEMENT_THEORY":"SGP4","MEAN_ANOMALY":"296.0071","MEAN_MOTION_DDOT":"0.0000000000000","OBJECT_NAME":"STARLINK-1310","RA_OF_ASC_NODE":"270.2948","ARG_OF_PERICENTER":"64.1163","EPHEMERIS_TYPE":"0","NORAD_CAT_ID":"45378","CENTER_NAME":"EARTH","DECAY_DATE":null,"SEMIMAJOR_AXIS":"6925.334","LAUNCH_DATE":"2020-03-18","REF_FRAME":"TEME","FILE":"3239585"},{"DECAY_DATE":null,"NORAD_CAT_ID":"45379","CENTER_NAME":"EARTH","FILE":"3239585","SEMIMAJOR_AXIS":"6925.361","LAUNCH_DATE":"2020-03-18","REF_FRAME":"TEME","RCS_SIZE":"LARGE","REV_AT_EPOCH":"9660","MEAN_MOTION":"15.06395833","OBJECT_TYPE":"PAYLOAD","TLE_LINE2":"2 45379  53.0541 270.2731 0002377  59.9767 300.1458 15.06395833 96607","BSTAR":"-0.00003702900000","RA_OF_ASC_NODE":"270.2731","ARG_OF_PERICENTER":"59.9767","EPHEMERIS_TYPE":"0","MEAN_ELEMENT_THEORY":"SGP4","MEAN_ANOMALY":"300.1458","MEAN_MOTION_DDOT":"0.0000000000000","OBJECT_NAME":"STARLINK-1319","TLE_LINE1":"1 45379U 20019V   21347.93554217 -.00000833  00000-0 -37029-4 0  9994","COUNTRY_CODE":"US","TIME_SYSTEM":"UTC","GP_ID":"191657273","OBJECT_ID":"2020-019V","ELEMENT_SET_NO":"999","PERIOD":"95.592","ECCENTRICITY":"0.00023770","EPOCH":"2021-12-13T22:27:10.843488","MEAN_MOTION_DOT":"-0.00000833","SITE":"AFETR","PERIAPSIS":"545.580","APOAPSIS":"548.872","CLASSIFICATION_TYPE":"U","INCLINATION":"53.0541"}];
